      2.10          N: GNSS NAV DATA                        RINEX VERSION / TYPE
fic2rin                                 02/10/2024 00:17:58 PGM / RUN BY / DATE
                                                            END OF HEADER
2  24  2  9  1 59 44.0 -.488340388983D-03  .591171556152D-11  .000000000000D+00
     .700000000000D+01  .154406250000D+03  .448840124564D-08 -.110801200567D+01
     .814162194729D-05  .162704391405D-01  .641494989395D-05  .515389332771D+04
     .439184000000D+06 -.337138772011D-06 -.234276890769D+01 -.372529029846D-08
     .967645917125D+00  .267406250000D+03 -.124246539335D+01 -.840106422376D-08
     .459662003910D-09  .100000000000D+01  .230000000000D+04  .000000000000D+00
     .240000000000D+01  .000000000000D+00 -.176951289177D-07  .700000000000D+01
     .432000000000D+06  .400000000000D+01
11 24  2  9 12  0  0.0 -.569870229810D-03 -.130739863380D-10  .000000000000D+00
     .120000000000D+02  .153687500000D+03  .429982196199D-08  .303225491267D+01
     .804848968983D-05  .124167453032D-02  .442191958427D-05  .515366366386D+04
     .475200000000D+06  .726431608200D-07 -.221168607303D+01 -.111758708954D-07
     .966151841817D+00  .296687500000D+03 -.247439306008D+01 -.818748389871D-08
     .450733060555D-09  .100000000000D+01  .230000000000D+04  .000000000000D+00
     .240000000000D+01  .000000000000D+00 -.838190317154D-08  .780000000000D+03
     .468000000000D+06  .400000000000D+01
28 24  2  9 12  0  0.0 -.125302467495D-03 -.125055521494D-10  .000000000000D+00
     .320000000000D+02  .152500000000D+02  .465269380337D-08 -.503201178132D+00
     .974163413048D-06  .669830944389D-03  .958330929279D-05  .515358610535D+04
     .475200000000D+06  .614672899246D-07  .848478793062D+00 -.614672899246D-07
     .961459549632D+00  .193437500000D+03  .173598889001D+01 -.795676000242D-08
     .684671376454D-09  .100000000000D+01  .230000000000D+04  .000000000000D+00
     .240000000000D+01  .000000000000D+00 -.931322574615D-08  .288000000000D+03
     .468000000000D+06  .400000000000D+01
18 24  2  9 12  0  0.0 -.551715027541D-03 -.852651282912D-11  .000000000000D+00
     .219000000000D+03  .164156250000D+03  .417874549009D-08  .179183781091D+01
     .852346420288D-05  .383664248511D-02  .553950667381D-05  .515363076591D+04
     .475200000000D+06 -.745058059692D-08 -.224155192890D+01  .186264514923D-07
     .974525573199D+00  .279125000000D+03 -.302345970728D+01 -.814676791701D-08
     .396087927223D-09  .100000000000D+01  .230000000000D+04  .000000000000D+00
     .240000000000D+01  .000000000000D+00 -.838190317154D-08  .219000000000D+03
     .468000000000D+06  .400000000000D+01
23 24  2  9 12  0  0.0  .152528285980D-03  .795807864051D-11  .000000000000D+00
     .240000000000D+02 -.615000000000D+02  .457233331318D-08  .691831693178D+00
    -.321306288242D-05  .398455676623D-02 -.255182385445D-06  .515370417595D+04
     .475200000000D+06  .372529029846D-08 -.124081329509D+01  .102445483208D-06
     .977340255379D+00  .393531250000D+03 -.296571943227D+01 -.855214194533D-08
    -.161435295857D-09  .100000000000D+01  .230000000000D+04  .000000000000D+00
     .240000000000D+01  .000000000000D+00 -.838190317154D-08  .536000000000D+03
     .468000000000D+06  .400000000000D+01
14 24  2  9 12  0  0.0  .321167055517D-03  .100044417195D-10  .000000000000D+00
     .169000000000D+03 -.280312500000D+02  .538772442035D-08  .291383911847D+00
    -.157579779625D-05  .394359952770D-02  .488385558128D-05  .515367770386D+04
     .475200000000D+06 -.223517417908D-07  .195590435876D+01  .242143869400D-07
     .946095455850D+00  .275687500000D+03 -.296620138331D+01 -.852214069565D-08
    -.525379027002D-09  .100000000000D+01  .230000000000D+04  .000000000000D+00
     .240000000000D+01  .000000000000D+00 -.791624188423D-08  .937000000000D+03
     .468000000000D+06  .400000000000D+01
2  24  2  9 11 59 44.0 -.488130375743D-03  .579802872380D-11  .000000000000D+00
     .110000000000D+02  .165125000000D+03  .406802659249D-08 -.213838010389D+01
     .893510878086D-05  .162126045907D-01  .624358654022D-05  .515372296143D+04
     .475184000000D+06  .106170773506D-06 -.234306243928D+01  .290572643280D-06
     .967662116017D+00  .261343750000D+03 -.124469805211D+01 -.786247036059D-08
     .413945813933D-09  .100000000000D+01  .230000000000D+04  .000000000000D+00
     .240000000000D+01  .000000000000D+00 -.176951289177D-07  .110000000000D+02
     .470700000000D+06  .400000000000D+01
20 24  2  9 11 59 44.0  .388158485293D-03 -.147792889038D-11  .000000000000D+00
     .800000000000D+01 -.369062500000D+02  .505128183474D-08  .237348824314D+01
    -.188313424587D-05  .389894144610D-02 -.877305865288D-06  .515371409035D+04
     .475184000000D+06 -.135973095894D-06 -.138674048532D+01 -.949949026108D-07
     .951955253214D+00  .390125000000D+03 -.263943500711D+01 -.875107880327D-08
    -.382158775590D-10  .100000000000D+01  .230000000000D+04  .000000000000D+00
     .240000000000D+01  .000000000000D+00 -.838190317154D-08  .800000000000D+01
     .471450000000D+06  .400000000000D+01
18 24  2  9 12 59 44.0 -.551744829863D-03 -.852651282912D-11  .000000000000D+00
     .220000000000D+03  .171125000000D+03  .420946105524D-08  .231483251788D+01
     .882893800735D-05  .383707380388D-02  .540725886822D-05  .515362899971D+04
     .478784000000D+06 -.409781932831D-07 -.224158119751D+01  .745058059692D-08
     .974527072690D+00  .282187500000D+03 -.302368548528D+01 -.813141013444D-08
     .413231498465D-09  .100000000000D+01  .230000000000D+04  .000000000000D+00
     .240000000000D+01  .000000000000D+00 -.838190317154D-08  .220000000000D+03
     .471600000000D+06  .400000000000D+01
21 24  2  9 11 59 44.0  .135553535074D-03 -.136424205266D-11  .000000000000D+00
     .400000000000D+01  .177687500000D+03  .408409869053D-08 -.251323566071D+01
     .954046845436D-05  .253034281777D-01  .702217221260D-05  .515373232079D+04
     .475184000000D+06 -.214204192162D-06 -.234961220001D+01  .370666384697D-06
     .961942881674D+00  .247718750000D+03 -.632557389103D+00 -.776639493009D-08
     .405374028313D-09  .100000000000D+01  .230000000000D+04  .000000000000D+00
     .240000000000D+01  .000000000000D+00 -.102445483208D-07  .400000000000D+01
     .472200000000D+06  .400000000000D+01
26 24  2  9 11 59 44.0  .192034523934D-03 -.397903932026D-11  .000000000000D+00
     .200000000000D+02 -.136562500000D+02  .581952812099D-08 -.645617211360D+00
    -.692903995514D-06  .882143958006D-02  .429153442383D-05  .515356951523D+04
     .475184000000D+06  .137835741043D-06  .185279621603D+01  .109896063805D-06
     .931370275448D+00  .279625000000D+03  .529899355544D+00 -.875857911569D-08
    -.291083553370D-09  .100000000000D+01  .230000000000D+04  .000000000000D+00
     .240000000000D+01  .000000000000D+00  .698491930962D-08  .200000000000D+02
     .472200000000D+06  .400000000000D+01
2  24  2  9 13 59 44.0 -.488088466227D-03  .579802872380D-11  .000000000000D+00
     .390000000000D+02  .154312500000D+03  .428517849488D-08 -.108844343413D+01
     .820495188236D-05  .162129105302D-01  .790134072304D-05  .515371639633D+04
     .482384000000D+06 -.275671482086D-06 -.234312136708D+01  .614672899246D-07
     .967663393144D+00  .239031250000D+03 -.124448392333D+01 -.829748848084D-08
     .487877464912D-09  .100000000000D+01  .230000000000D+04  .000000000000D+00
     .240000000000D+01  .000000000000D+00 -.176951289177D-07  .390000000000D+02
     .475200000000D+06  .400000000000D+01
21 24  2  9 13 59 44.0  .135543756187D-03 -.136424205266D-11  .000000000000D+00
     .900000000000D+01  .155812500000D+03  .438125392538D-08 -.146321929410D+01
     .807456672192D-05  .253048441373D-01  .811740756035D-05  .515372573280D+04
     .482384000000D+06 -.387430191040D-06 -.234967197631D+01 -.242143869400D-06
     .961944229021D+00  .234281250000D+03 -.632427941334D+00 -.832034657583D-08
     .628240454451D-09  .100000000000D+01  .230000000000D+04  .000000000000D+00
     .240000000000D+01  .000000000000D+00 -.102445483208D-07  .900000000000D+01
     .475200000000D+06  .400000000000D+01
20 24  2  9 13 59 44.0  .388148240745D-03 -.147792889038D-11  .000000000000D+00
     .900000000000D+01 -.283750000000D+02  .499092217766D-08 -.285949748596D+01
    -.142678618431D-05  .389791699126D-02 -.105611979961D-05  .515371589661D+04
     .482384000000D+06 -.223517417908D-07 -.138680311869D+01 -.117346644402D-06
     .951955308805D+00  .393031250000D+03 -.263947487748D+01 -.868179020284D-08
    -.300012496725D-10  .100000000000D+01  .230000000000D+04  .000000000000D+00
     .240000000000D+01  .000000000000D+00 -.838190317154D-08  .900000000000D+01
     .475200000000D+06  .400000000000D+01
26 24  2  9 13 59 44.0  .192006584257D-03 -.397903932026D-11  .000000000000D+00
     .650000000000D+02 -.133125000000D+02  .587810198940D-08  .404624456336D+00
    -.532716512680D-06  .882131687831D-02  .427477061749D-05  .515356925011D+04
     .482384000000D+06  .335276126862D-07  .185273303992D+01  .145286321640D-06
     .931368045960D+00  .277937500000D+03  .529912074153D+00 -.877643700240D-08
    -.313227332890D-09  .100000000000D+01  .230000000000D+04  .000000000000D+00
     .240000000000D+01  .000000000000D+00  .698491930962D-08  .650000000000D+02
     .475200000000D+06  .400000000000D+01
1  24  2  9 14  0  0.0  .168886967003D-03  .147792889038D-11  .000000000000D+00
     .670000000000D+02  .153843750000D+03  .371586906658D-08  .256803820750D+01
     .784359872341D-05  .127014125464D-01  .649131834507D-05  .515400491524D+04
     .482400000000D+06  .298023223877D-07 -.223882833239D+01 -.178813934326D-06
     .990629605094D+00  .268062500000D+03  .998980171168D+00 -.768317717803D-08
     .426089176896D-09  .100000000000D+01  .230000000000D+04  .000000000000D+00
     .340000000000D+01  .630000000000D+02  .512227416039D-08  .670000000000D+02
     .475200000000D+06  .400000000000D+01
